C/2021 P2 (PANSTARRS),e,150.0541,32.0956,76.7143,13986,0.0000006,0.99963765,0.0000,01/23.0790/2023,2000,g  9.0,4.0
# From MPEC 2024-GJ3
P/2021 P3 (PANSTARRS),e,27.1607,358.2474,334.0003,4.412098,0.1063497,0.33837707,161.9480,07/29.0/2025,2000,g 14.0,4.0
# From MPEC 2023-A50
C/2021 P4 (ATLAS),e,56.3794,348.0028,175.8096,296.2823,0.0001933,0.99635974,0.0000,07/30.4372/2022,2000,g  9.5,4.0
# From MPEC 2023-E68
P/2021 PE20 (ATLAS),e,19.9999,99.6246,210.4301,3.745814,0.1359517,0.67000936,205.9163,07/29.0/2025,2000,g 17.0,4.0
# From MPEC 2023-FK0
C/2021 Q3 (ATLAS),e,77.7146,307.9085,114.1477,75.02157,0.0015168,0.93056500,1.9414,07/29.0/2025,2000,g  8.0,4.0
# From MPEC 2025-A40
C/2021 Q4 (Fuls),h,06/10.9512/2023,71.5364,183.3304,147.0487,1.001471,7.564877,2000,6.0,4.0
# From MPEC 2022-C56
P/2021 Q5 (ATLAS),e,10.7380,239.7550,180.9592,3.286900,0.1653958,0.62455617,236.1154,07/29.0/2025,2000,g 15.0,4.0
# From MPEC 2024-UA9
C/2021 Q6 (PANSTARRS),h,03/25.2522/2024,161.8261,133.5741,141.0652,1.002900,8.707751,2000,6.0,4.0
# From MPEC 2023-FK0
C/2021 QM45 (PANSTARRS),e,22.7971,354.5957,72.9273,410.2100,0.0001186,0.99322670,0.0000,08/13.6749/2022,2000,g 11.0,4.0
# From MPEC 2022-X67
P/2021 R1 (PANSTARRS),e,5.5344,143.0954,220.0262,8.249770,0.0415950,0.40788784,55.2731,07/29.0/2025,2000,g 11.0,4.0
# From MPEC 2022-X67
C/2021 R2 (PANSTARRS),e,134.4817,16.3405,32.5554,12087,0.0000007,0.99939469,0.0000,12/28.5100/2021,2000,g  7.5,4.0
# From MPEC 2021-W31
P/2021 R3 (PANSTARRS),e,19.9425,304.1950,2.5834,3.768995,0.1346994,0.33165511,205.5732,07/29.0/2025,2000,g 16.0,4.0
# From MPEC 2021-W31
P/2021 R4 (Wierzchos),e,21.0107,321.2801,56.7808,5.627810,0.0738235,0.58522359,102.2203,07/29.0/2025,2000,g 16.0,4.0
# From MPEC 2024-JU4
P/2021 R5 (Rankin),e,7.8537,219.9626,167.6090,4.798166,0.0937759,0.30589473,121.3150,07/29.0/2025,2000,g 12.0,4.0
# From MPEC 2021-W31
P/2021 R6 (Groeller),e,34.8893,176.1612,220.8851,6.289289,0.0624887,0.59299517,85.3668,07/29.0/2025,2000,g 14.5,4.0
# From MPEC 2022-X67
C/2021 R7 (PANSTARRS),e,158.8760,170.2049,140.4055,1014,0.0000305,0.99442126,0.0000,04/17.3982/2021,2000,g 10.5,4.0
# From MPEC 2021-Y10
P/2021 R8 (Sheppard),e,2.2027,167.0648,190.8175,3.020304,0.1877708,0.29252413,261.2706,07/29.0/2025,2000,g 18.5,4.0
# From MPEC 2023-J29
C/2021 S1 (ATLAS),h,03/02.0359/2022,52.0370,299.8547,148.3150,1.002914,6.125548,2000,7.0,4.0
# From MPC185656
C/2021 S3 (PANSTARRS),e,58.5410,215.6055,6.8348,109636,0.0000000,0.99998796,0.0000,02/14.6669/2024,2000,g  5.5,4.0
# From MPC184409
C/2021 S4 (Tsuchinshan),e,17.4800,5.4490,73.0519,155.6834,0.0005074,0.95701455,0.2903,07/29.0/2025,2000,g  6.5,4.0
# From MPEC 2022-OB6
C/2021 T1 (Lemmon),e,140.3510,56.8484,51.5825,2931,0.0000062,0.99895584,0.0000,10/14.9103/2021,2000,g 12.5,4.0
# From MPEC 2023-A50
C/2021 T2 (Fuls),h,06/08.3537/2022,117.5093,223.2045,263.5225,1.000535,1.243910,2000,12.0,4.0
# From MPC184409
C/2021 T4 (Lemmon),e,160.7784,257.8896,329.7665,4500,0.0000033,0.99967080,0.0000,07/31.5073/2023,2000,g  7.5,4.0
# From MPC184409
P/2021 TR81 (Lemmon),e,36.8131,220.1722,272.0103,8.773660,0.0379256,0.83305875,45.9789,07/29.0/2025,2000,g 15.6,4.0
# From MPEC 2022-ED3
P/2021 U1 (Wierzchos),e,30.5512,246.7954,145.2415,8.540276,0.0394908,0.71261387,55.1804,07/29.0/2025,2000,g 14.5,4.0
# From MPEC 2022-L66
P/2021 U3 (Attard-Maury),e,69.9612,75.0944,335.3281,4.197132,0.1146239,0.54937466,157.3944,07/29.0/2025,2000,g 15.5,4.0
# From MPEC 2021-W31
C/2021 U4 (Leonard),e,152.8815,241.8050,237.3209,45.50882,0.0032104,0.96073135,4.2197,07/29.0/2025,2000,g 17.0,4.0
# From MPEC 2022-WQ9
C/2021 U5 (Catalina),e,39.0398,182.6716,321.4654,222.8552,0.0002963,0.98941452,0.0000,01/27.0203/2022,2000,g 13.0,4.0
# From MPEC 2022-CN4
C/2021 V1 (Rankin),e,71.4335,207.7010,195.2194,720.4682,0.0000510,0.99580901,0.0000,04/30.6097/2022,2000,g 13.0,4.0
# From MPEC 2024-JU4
P/2021 V2 (Fuls),e,12.6925,232.2762,259.9097,9.091399,0.0359549,0.61530080,33.0417,07/29.0/2025,2000,g 10.0,4.0
# From MPEC 2024-TD8
C/2021 X1 (Maury-Attard),h,05/27.3015/2023,140.1078,10.6185,334.6214,1.000640,3.234701,2000,7.0,4.0
# From MPEC 2024-E08
C/2021 X2 (Bok),h,07/08.4036/2022,137.1528,228.8441,193.3908,1.001564,2.998144,2000,13.0,4.0
# From MPEC 2024-GJ3
C/2021 Y1 (ATLAS),h,04/30.9505/2023,77.1861,244.7666,245.8501,1.001613,2.032456,2000,7.0,4.0
# From MPEC 2022-YN2
C/2022 A1 (Sarneczky),e,116.5750,285.4922,201.2862,373.4291,0.0001366,0.99663586,0.0000,01/31.1523/2022,2000,g 18.0,4.0
# From MPEC 2024-P23
C/2022 A2 (PANSTARRS),h,02/18.1833/2023,108.1728,171.6072,88.3672,1.000063,1.735345,2000,9.5,4.0
# From MPEC 2024-UQ8
C/2022 A3 (Lemmon-ATLAS),e,88.3514,325.4563,234.8734,901.9222,0.0000364,0.99589268,0.0000,09/28.9715/2023,2000,g  8.0,4.0
# From MPEC 2022-K19
P/2022 B1 (Wierzchos),e,10.9950,325.3784,148.9426,5.469398,0.0770539,0.65364500,96.2356,07/29.0/2025,2000,g 16.5,4.0
# From MPEC 2022-YB4
A/2022 B3,e,132.0506,286.1749,150.7227,633.2376,0.0000619,0.99414956,0.0000,01/16.6827/2022,2000,g 16.5,2.0
# From MPEC 2022-GA9
C/2022 B4 (Bok),e,20.0584,340.5087,153.0301,408.1010,0.0001196,0.99662862,0.0000,01/30.4807/2022,2000,g 21.0,4.0
# From MPEC 2023-J29
P/2022 BV9 (Lemmon),e,11.9234,337.3078,16.3064,4.365893,0.1080425,0.23350068,188.0952,07/29.0/2025,2000,g  9.5,4.0
# From MPEC 2023-J29
P/2022 C1 (PANSTARRS),e,4.7632,113.0986,9.4667,7.234750,0.0506488,0.44915498,68.9547,07/29.0/2025,2000,g 12.0,4.0
# From MPEC 2023-VM5
P/2022 C2 (PANSTARRS),e,9.9846,135.2624,89.1329,6.032962,0.0665132,0.44202083,72.3715,07/29.0/2025,2000,g 12.5,4.0
# From MPEC 2023-UR6
P/2022 C3 (PANSTARRS),e,12.8250,139.0409,93.8008,9.615624,0.0330551,0.54550485,37.1804,07/29.0/2025,2000,g 11.5,4.0
# From MPEC 2022-K19
P/2022 D1 (PANSTARRS),e,44.0653,47.9464,88.6646,7.405947,0.0489027,0.54802368,69.9382,07/29.0/2025,2000,g 12.5,4.0
# From MPEC 2022-K19
C/2022 D2 (Kowalski),e,22.6821,312.3564,177.8592,400.3046,0.0001231,0.99612135,0.0000,03/28.0804/2022,2000,g 17.0,4.0
# From MPEC 2022-L66
P/2022 E1 (Christensen),e,19.0070,113.3412,114.8881,3.777868,0.1342251,0.22056623,153.7931,07/29.0/2025,2000,g 13.5,4.0
# From MPC185656
C/2022 E2 (ATLAS),h,09/14.1461/2024,137.1410,125.3973,41.7508,1.000341,3.666572,2000,5.0,4.0
# From MPEC 2024-GJ3
C/2022 E3 (ZTF),e,109.1762,302.5047,145.8305,174697,0.0000000,0.99999362,0.0000,01/12.4946/2023,2000,g  7.5,4.0
# From MPEC 2024-PC5
C/2022 F1 (ATLAS),e,58.0004,350.6352,278.3640,19134,0.0000004,0.99968754,0.0000,08/06.0497/2022,2000,g  7.0,4.0
# From MPEC 2022-QD9
C/2022 F2 (NEOWISE),e,97.3186,58.7815,200.5885,23.75643,0.0085120,0.93309608,10.4247,07/29.0/2025,2000,g 14.5,4.0
# From MPC185656
C/2022 H1 (PANSTARRS),e,49.8604,6.3243,246.2918,850.6097,0.0000397,0.99096050,0.0000,01/18.6232/2024,2000,g  6.0,4.0
# From MPEC 2022-VC5
C/2022 J1 (Maury-Attard),e,105.9598,280.8051,305.6055,47.48330,0.0030123,0.96630967,3.7823,07/29.0/2025,2000,g 14.9,4.0
# From MPEC 2023-M14
C/2022 J2 (Bok),e,149.1420,252.6894,133.1581,90.01981,0.0011540,0.97968678,0.0000,10/26.6800/2022,2000,g  9.0,4.0
# From MPEC 2024-YC7
C/2022 JK5 (PANSTARRS),e,16.8243,59.6521,247.3851,43.83320,0.0033962,0.93849792,2.7921,07/29.0/2025,2000,g 11.0,4.0
# From MPEC 2022-ST7
C/2022 K1 (Leonard),h,12/16.5556/2021,41.9749,136.3621,142.5378,1.000776,3.985569,2000,11.0,4.0
# From MPEC 2023-CD7
C/2022 L1 (Catalina),e,123.4381,300.0316,59.7998,419.4420,0.0001147,0.99620670,0.0000,09/27.6697/2022,2000,g 15.8,4.0
# From MPC184409
C/2022 L2 (ATLAS),h,03/12.1820/2024,129.3119,39.2471,199.9274,1.000791,2.693499,2000,6.5,4.0
# From MPEC 2024-DC6
P/2022 L3 (ATLAS),e,21.5369,29.8250,10.4160,6.506508,0.0593857,0.62741468,59.5743,07/29.0/2025,2000,g 16.5,4.0
# From MPEC 2022-N37
C/2022 L4 (PANSTARRS),e,141.2433,66.0601,125.2438,281.3351,0.0002089,0.98930730,0.0000,12/09.0853/2021,2000,g 14.0,4.0
# From MPEC 2024-GJ3
C/2022 N1 (Attard-Maury),e,164.7264,301.8788,40.9916,36.57447,0.0044559,0.95955970,4.6934,07/29.0/2025,2000,g 16.9,4.0
# From MPC185657
C/2022 N2 (PANSTARRS),h,07/31.8165/2025,5.5029,319.7396,75.3996,1.003347,3.825465,2000,6.0,4.0
# From MPEC 2024-A43
C/2022 O1 (ATLAS),h,02/15.3195/2022,71.0524,49.9105,268.9412,1.001191,7.435029,2000,6.0,4.0
# From MPEC 2023-HD1
P/2022 O2 (PANSTARRS),e,9.4181,330.4909,48.6694,6.305114,0.0622536,0.72092518,58.1641,07/29.0/2025,2000,g 16.2,4.0
# From MPEC 2023-N01
C/2022 P1 (NEOWISE),e,154.5854,205.0670,249.8689,18.46613,0.0124205,0.91378480,12.0887,07/29.0/2025,2000,g 13.0,4.0
# From MPEC 2023-XP6
P/2022 P2 (ZTF),e,12.4411,291.1719,137.7796,4.491914,0.1035278,0.55797473,115.3261,07/29.0/2025,2000,g 12.5,4.0
# From MPEC 2023-HD1
C/2022 P3 (ZTF),e,59.5159,72.2196,0.2259,264.3309,0.0002293,0.99028982,0.0000,07/27.5295/2022,2000,g  9.0,4.0
# From MPEC 2023-R20
C/2022 Q2 (ATLAS),e,151.4564,352.9622,44.0269,32.77585,0.0052526,0.94991905,4.7760,07/29.0/2025,2000,g 13.0,4.0
# From MPC184410
C/2022 QE78 (ATLAS),h,09/11.7993/2025,36.6261,119.8869,0.6047,1.002313,5.475831,2000,5.0,4.0
# From MPEC 2024-M41
P/2022 R1 (PANSTARRS),e,7.3795,175.6528,221.7632,7.141025,0.0516492,0.50080116,34.2915,07/29.0/2025,2000,g 11.5,4.0
# From MPEC 2022-Y15
C/2022 R2 (ATLAS),e,52.8909,60.3893,78.3201,440.7947,0.0001065,0.99857056,0.0000,10/25.5834/2022,2000,g 17.0,4.0
# From MPC184410
C/2022 R3 (Leonard),h,03/05.9399/2023,43.0706,8.2603,72.9369,1.001538,5.132336,2000,9.0,4.0
# From MPEC 2022-X67
P/2022 R4 (PANSTARRS),e,21.0084,176.6350,197.4961,3.838670,0.1310488,0.48941640,146.1420,07/29.0/2025,2000,g 16.5,4.0
# From MPEC 2022-WQ9
P/2022 R5 (PANSTARRS),e,15.2923,115.0421,240.5357,3.069999,0.1832300,0.19470377,212.4869,07/29.0/2025,2000,g 16.0,4.0
# From MPC185657
C/2022 R6 (PANSTARRS),h,08/26.2918/2025,57.0199,150.7847,319.9235,1.005073,6.565515,2000,5.0,4.0
# From MPEC 2023-HD1
P/2022 S1 (PANSTARRS),e,34.5662,136.0893,262.8488,6.408771,0.0607494,0.50757873,65.3070,07/29.0/2025,2000,g 15.1,4.0
# From MPEC 2022-VC5
C/2022 S3 (PANSTARRS),h,01/21.6118/2023,78.4781,157.2448,267.9892,1.000381,0.838848,2000,17.0,4.0
# From MPC185657
